{
  "type": "FeatureCollection",
  "features": [
    {
      "type": "Feature",
      "properties": {
        "norad_id": 29894,
        "name": "FENGYUN 1C DEB",
        "group": "fengyun-1c-debris",
        "lat": 74.6597256342118,
        "lon": 13.427231948073894,
        "alt_km": 888.1109224910342,
        "timestamp": "2025-12-22T14:45:57.674575+00:00",
        "meta_object_name": "FENGYUN 1C DEB",
        "meta_object_id": "1999-025GQ",
        "meta_epoch": "2025-12-21T23:20:18.053952",
        "meta_mean_motion": 13.80983422,
        "meta_eccentricity": 0.01680812,
        "meta_inclination": 99.4847,
        "meta_ra_of_asc_node": 50.3272,
        "meta_arg_of_pericenter": 20.647,
        "meta_mean_anomaly": 101.5175,
        "meta_ephemeris_type": 0,
        "meta_classification_type": "U",
        "meta_norad_cat_id": 29894,
        "meta_element_set_no": 999,
        "meta_rev_at_epoch": 95204,
        "meta_bstar": 0.00049539106,
        "meta_mean_motion_dot": 5.37e-06,
        "meta_mean_motion_ddot": 0,
        "tle_line1": "1 29894U 99025GQ  25355.97243118  .00000537  00000+0  49539-3 0  9999",
        "tle_line2": "2 29894  99.4847  50.3272 0168081  20.6470 101.5175 13.80983422952047"
      },
      "geometry": {
        "type": "Point",
        "coordinates": [
          13.427231948073894,
          74.6597256342118
        ]
      }
    },
    {
      "type": "Feature",
      "properties": {
        "norad_id": 29895,
        "name": "FENGYUN 1C DEB",
        "group": "fengyun-1c-debris",
        "lat": 67.22419100625766,
        "lon": 81.42503781220255,
        "alt_km": 936.998118363942,
        "timestamp": "2025-12-22T14:45:57.674585+00:00",
        "meta_object_name": "FENGYUN 1C DEB",
        "meta_object_id": "1999-025GR",
        "meta_epoch": "2025-12-22T06:13:12.091872",
        "meta_mean_motion": 14.08320924,
        "meta_eccentricity": 0.02996681,
        "meta_inclination": 99.8848,
        "meta_ra_of_asc_node": 105.5721,
        "meta_arg_of_pericenter": 317.5943,
        "meta_mean_anomaly": 104.2729,
        "meta_ephemeris_type": 0,
        "meta_classification_type": "U",
        "meta_norad_cat_id": 29895,
        "meta_element_set_no": 999,
        "meta_rev_at_epoch": 95658,
        "meta_bstar": 0.0021034001,
        "meta_mean_motion_dot": 5.383e-05,
        "meta_mean_motion_ddot": 0,
        "tle_line1": "1 29895U 99025GR  25356.25916773  .00005383  00000+0  21034-2 0  9999",
        "tle_line2": "2 29895  99.8848 105.5721 0299668 317.5943 104.2729 14.08320924956585"
      },
      "geometry": {
        "type": "Point",
        "coordinates": [
          81.42503781220255,
          67.22419100625766
        ]
      }
    },
    {
      "type": "Feature",
      "properties": {
        "norad_id": 29896,
        "name": "FENGYUN 1C DEB",
        "group": "fengyun-1c-debris",
        "lat": 47.58313715702763,
        "lon": -122.40137866269544,
        "alt_km": 854.2102578322183,
        "timestamp": "2025-12-22T14:45:57.674595+00:00",
        "meta_object_name": "FENGYUN 1C DEB",
        "meta_object_id": "1999-025GS",
        "meta_epoch": "2025-12-21T05:42:13.817088",
        "meta_mean_motion": 13.65377934,
        "meta_eccentricity": 0.0240048,
        "meta_inclination": 99.4224,
        "meta_ra_of_asc_node": 246.7308,
        "meta_arg_of_pericenter": 80.0674,
        "meta_mean_anomaly": 41.9098,
        "meta_ephemeris_type": 0,
        "meta_classification_type": "U",
        "meta_norad_cat_id": 29896,
        "meta_element_set_no": 999,
        "meta_rev_at_epoch": 94158,
        "meta_bstar": 0.00062479,
        "meta_mean_motion_dot": 5.78e-06,
        "meta_mean_motion_ddot": 0,
        "tle_line1": "1 29896U 99025GS  25355.23765992  .00000578  00000+0  62479-3 0  9992",
        "tle_line2": "2 29896  99.4224 246.7308 0240048  80.0674  41.9098 13.65377934941585"
      },
      "geometry": {
        "type": "Point",
        "coordinates": [
          -122.40137866269544,
          47.58313715702763
        ]
      }
    },
    {
      "type": "Feature",
      "properties": {
        "norad_id": 29897,
        "name": "FENGYUN 1C DEB",
        "group": "fengyun-1c-debris",
        "lat": 34.8054436846879,
        "lon": -146.36664962422446,
        "alt_km": 989.6885609996625,
        "timestamp": "2025-12-22T14:45:57.674606+00:00",
        "meta_object_name": "FENGYUN 1C DEB",
        "meta_object_id": "1999-025GT",
        "meta_epoch": "2025-12-21T13:58:03.967104",
        "meta_mean_motion": 13.57215043,
        "meta_eccentricity": 0.0296934,
        "meta_inclination": 98.6294,
        "meta_ra_of_asc_node": 218.7846,
        "meta_arg_of_pericenter": 115.592,
        "meta_mean_anomaly": 277.2641,
        "meta_ephemeris_type": 0,
        "meta_classification_type": "U",
        "meta_norad_cat_id": 29897,
        "meta_element_set_no": 999,
        "meta_rev_at_epoch": 93060,
        "meta_bstar": 0.0018724,
        "meta_mean_motion_dot": 1.744e-05,
        "meta_mean_motion_ddot": 0,
        "tle_line1": "1 29897U 99025GT  25355.58199036  .00001744  00000+0  18724-2 0  9990",
        "tle_line2": "2 29897  98.6294 218.7846 0296934 115.5920 277.2641 13.57215043930605"
      },
      "geometry": {
        "type": "Point",
        "coordinates": [
          -146.36664962422446,
          34.8054436846879
        ]
      }
    },
    {
      "type": "Feature",
      "properties": {
        "norad_id": 29898,
        "name": "FENGYUN 1C DEB",
        "group": "fengyun-1c-debris",
        "lat": -12.2436370114951,
        "lon": 165.76946507571552,
        "alt_km": 725.5581915979328,
        "timestamp": "2025-12-22T14:45:57.674616+00:00",
        "meta_object_name": "FENGYUN 1C DEB",
        "meta_object_id": "1999-025GU",
        "meta_epoch": "2025-12-22T05:10:57.936576",
        "meta_mean_motion": 13.7035788,
        "meta_eccentricity": 0.04271073,
        "meta_inclination": 98.2229,
        "meta_ra_of_asc_node": 347.2248,
        "meta_arg_of_pericenter": 163.6876,
        "meta_mean_anomaly": 217.4143,
        "meta_ephemeris_type": 0,
        "meta_classification_type": "U",
        "meta_norad_cat_id": 29898,
        "meta_element_set_no": 999,
        "meta_rev_at_epoch": 93291,
        "meta_bstar": 0.0015223368,
        "meta_mean_motion_dot": 2.535e-05,
        "meta_mean_motion_ddot": 0,
        "tle_line1": "1 29898U 99025GU  25356.21594834  .00002535  00000+0  15223-2 0  9997",
        "tle_line2": "2 29898  98.2229 347.2248 0427107 163.6876 217.4143 13.70357880932916"
      },
      "geometry": {
        "type": "Point",
        "coordinates": [
          165.76946507571552,
          -12.2436370114951
        ]
      }
    },
    {
      "type": "Feature",
      "properties": {
        "norad_id": 29899,
        "name": "FENGYUN 1C DEB",
        "group": "fengyun-1c-debris",
        "lat": 26.493629612077825,
        "lon": -24.96056359416936,
        "alt_km": 1149.2369040833546,
        "timestamp": "2025-12-22T14:45:57.674627+00:00",
        "meta_object_name": "FENGYUN 1C DEB",
        "meta_object_id": "1999-025GV",
        "meta_epoch": "2025-12-21T09:18:52.380000",
        "meta_mean_motion": 13.37494936,
        "meta_eccentricity": 0.03534449,
        "meta_inclination": 98.662,
        "meta_ra_of_asc_node": 149.6348,
        "meta_arg_of_pericenter": 57.2817,
        "meta_mean_anomaly": 306.1873,
        "meta_ephemeris_type": 0,
        "meta_classification_type": "U",
        "meta_norad_cat_id": 29899,
        "meta_element_set_no": 999,
        "meta_rev_at_epoch": 92200,
        "meta_bstar": 0.00016547652,
        "meta_mean_motion_dot": 9.1e-07,
        "meta_mean_motion_ddot": 0,
        "tle_line1": "1 29899U 99025GV  25355.38810625  .00000091  00000+0  16548-3 0  9991",
        "tle_line2": "2 29899  98.6620 149.6348 0353444  57.2817 306.1873 13.37494936922008"
      },
      "geometry": {
        "type": "Point",
        "coordinates": [
          -24.96056359416936,
          26.493629612077825
        ]
      }
    },
    {
      "type": "Feature",
      "properties": {
        "norad_id": 29901,
        "name": "FENGYUN 1C DEB",
        "group": "fengyun-1c-debris",
        "lat": -4.16688794049882,
        "lon": -14.623321782725412,
        "alt_km": 1061.5331526378286,
        "timestamp": "2025-12-22T14:45:57.674637+00:00",
        "meta_object_name": "FENGYUN 1C DEB",
        "meta_object_id": "1999-025GX",
        "meta_epoch": "2025-12-21T11:04:49.818144",
        "meta_mean_motion": 13.33258688,
        "meta_eccentricity": 0.03791875,
        "meta_inclination": 98.7447,
        "meta_ra_of_asc_node": 165.0324,
        "meta_arg_of_pericenter": 263.5476,
        "meta_mean_anomaly": 150.8312,
        "meta_ephemeris_type": 0,
        "meta_classification_type": "U",
        "meta_norad_cat_id": 29901,
        "meta_element_set_no": 999,
        "meta_rev_at_epoch": 92035,
        "meta_bstar": 0.00036310274,
        "meta_mean_motion_dot": 2.29e-06,
        "meta_mean_motion_ddot": 0,
        "tle_line1": "1 29901U 99025GX  25355.46168771  .00000229  00000+0  36310-3 0  9994",
        "tle_line2": "2 29901  98.7447 165.0324 0379187 263.5476 150.8312 13.33258688920357"
      },
      "geometry": {
        "type": "Point",
        "coordinates": [
          -14.623321782725412,
          -4.16688794049882
        ]
      }
    }
  ]
}